ONEWEB-0269             
1 48987U 21060W   22286.83180216  .00000035  00000+0  58701-4 0  9996
2 48987  87.9051 136.0966 0001736  78.0609 282.0717 13.16593564 62992
ONEWEB-0270             
1 48988U 21060X   22286.84867865 -.00000511  00000+0 -13705-2 0  9994
2 48988  87.9068 136.0857 0001473  89.0303 271.0996 13.16594622 63030
ONEWEB-0271             
1 48989U 21060Y   22286.83603623  .00000016  00000+0  80268-5 0  9993
2 48989  87.9062 136.0650 0001170  65.5248 294.6005 13.16594877 63031
ONEWEB-0272             
1 48990U 21060Z   22286.85925799  .00000031  00000+0  48532-4 0  9992
2 48990  87.9057 136.0717 0001367  66.2058 293.9216 13.16596148 62988
ONEWEB-0273             
1 48991U 21060AA  22286.88036308 -.00000021  00000+0 -87334-4 0  9999
2 48991  87.9065 136.0751 0001337  79.4095 280.7186 13.16594957 62964
ONEWEB-0274             
1 48992U 21060AB  22286.82970790  .00000046  00000+0  86359-4 0  9997
2 48992  87.9067 136.0805 0001242  72.5386 287.5880 13.16595919 62997
ONEWEB-0275             
1 48993U 21060AC  22286.81915229  .00000005  00000+0 -20805-4 0  9993
2 48993  87.9067 136.0833 0001495  81.9705 278.1595 13.16596585 62920
ONEWEB-0276             
1 48994U 21060AD  22286.85290615  .00000012  00000+0 -25603-5 0  9993
2 48994  87.9047 136.1104 0001128  77.3909 282.7348 13.16596025 62947
ONEWEB-0277             
1 48995U 21060AE  22287.09358735 -.00001679  00000+0 -44263-2 0  9990
2 48995  87.9045 136.0640 0001149  61.8842 298.2405 13.16605837 64251
ONEWEB-0278             
1 48996U 21060AF  22286.85501827 -.00000013  00000+0 -68669-4 0  9995
2 48996  87.9060 136.0682 0001361  79.2978 280.8306 13.16594779 63061
ONEWEB-0279             
1 48997U 21060AG  22286.48349205 -.00000042  00000+0 -14311-3 0  9991
2 48997  87.9063 136.1478 0001525  78.8812 281.2490 13.16593322 62941
ONEWEB-0280             
1 48998U 21060AH  22287.10624917 -.00000192  00000+0 -53609-3 0  9997
2 48998  87.9057 136.0392 0001283  43.4783 316.6449 13.16597140 64250
ONEWEB-0281             
1 48999U 21060AJ  22286.88459519 -.00000008  00000+0 -54080-4 0  9997
2 48999  87.9060 136.0632 0001975  74.6749 285.4601 13.16595611 63004
ONEWEB-0282             
1 49000U 21060AK  22286.83812340 -.00004019  00000+0 -10549-1 0  9996
2 49000  87.9048 136.0971 0001128  86.7842 273.3418 13.16615326 62971
ONEWEB-0283             
1 49001U 21060AL  22286.82758455  .00000040  00000+0  71780-4 0  9997
2 49001  87.9041 136.0902 0001347  70.3744 289.7532 13.16596639 62986
ONEWEB-0284             
1 49002U 21060AM  22286.82125345  .00000001  00000+0 -31401-4 0  9998
2 49002  87.9060 136.1254 0001193  86.4421 273.6846 13.16590318 62964
ONEWEB-0285             
1 49075U 21075A   22286.75569130 -.00002386  00000+0 -66676-2 0  9999
2 49075  87.8846 257.3725 0001723  77.2127 282.9194 13.12451731 59128
ONEWEB-0286             
1 49076U 21075B   22286.64767343 -.00000376  00000+0 -10805-2 0  9994
2 49076  87.8874 257.3753 0002487  80.8908 279.2502 13.12441482 58466
ONEWEB-0287             
1 49077U 21075C   22286.70008900 -.00000027  00000+0 -10162-3 0  9999
2 49077  87.9029 272.6459 0001890  99.6804 260.4541 13.17648992 56837
ONEWEB-0288             
1 49078U 21075D   22286.63281852  .00002323  00000+0  64182-2 0  9990
2 49078  87.8881 257.3748 0002367  84.9213 275.2186 13.12463274 59087
ONEWEB-0289             
1 49079U 21075E   22287.25021589 -.00003632  00000+0 -93883-2 0  9995
2 49079  87.9033 272.5067 0002296  87.2962 272.8433 13.17664624 58454
ONEWEB-0290             
1 49080U 21075F   22286.70627518 -.00000048  00000+0 -15737-3 0  9991
2 49080  87.9028 272.6392 0001765  98.9336 261.1995 13.17648315 56828
ONEWEB-0291             
1 49081U 21075G   22286.69541488 -.00000127  00000+0 -35919-3 0  9993
2 49081  87.9029 272.6288 0002008  96.0183 264.1178 13.17644457 56812
ONEWEB-0293             
1 49082U 21075H   22286.71248389 -.00000059  00000+0 -18459-3 0  9995
2 49082  87.9026 272.6109 0001766  97.9507 262.1825 13.17649347 56845
ONEWEB-0294             
1 49083U 21075J   22286.63812513 -.00000349  00000+0 -10067-2 0  9991
2 49083  87.8875 257.3793 0001541  93.9341 266.1963 13.12441601 58475
ONEWEB-0295             
1 49084U 21075K   22286.71403028  .00000046  00000+0  85169-4 0  9997
2 49084  87.9026 272.5695 0002281 104.6138 255.5247 13.17650125 56801
ONEWEB-0296             
1 49085U 21075L   22286.62224881  .00000139  00000+0  35180-3 0  9996
2 49085  87.8871 257.3784 0002629 105.8989 254.2429 13.12442414 58470
ONEWEB-0297             
1 49086U 21075M   22286.65189528 -.00000339  00000+0 -97859-3 0  9993
2 49086  87.8838 257.3926 0002219  74.6765 285.4609 13.12441294 59081
ONEWEB-0298             
1 49087U 21075N   22286.71557035  .00000067  00000+0  13854-3 0  9992
2 49087  87.9027 272.5945 0002440  86.0655 274.0755 13.17646790 56833
ONEWEB-0299             
1 49088U 21075P   22286.71713012 -.00000005  00000+0 -47107-4 0  9995
2 49088  87.9080 272.5514 0002177  90.0904 270.0477 13.17650936 56816
ONEWEB-0300             
1 49089U 21075Q   22286.64344532 -.00000412  00000+0 -11801-2 0  9997
2 49089  87.8875 257.3695 0002163  76.8815 283.2555 13.12442074 59102
ONEWEB-0301             
1 49090U 21075R   22286.62862818 -.00000111  00000+0 -34312-3 0  9998
2 49090  87.8871 257.3827 0001837  74.1781 285.9550 13.12442656 58465
ONEWEB-0302             
1 49091U 21075S   22287.22685542  .00000300  00000+0  79717-3 0  9999
2 49091  87.8873 257.2644 0002018  89.7847 270.3513 13.12442979 59524
ONEWEB-0304             
1 49092U 21075T   22286.70161644 -.00000077  00000+0 -23168-3 0  9996
2 49092  87.9028 272.6038 0001956  87.8671 272.2685 13.17648024 56780
ONEWEB-0305             
1 49093U 21075U   22286.69387229 -.00000055  00000+0 -17522-3 0  9997
2 49093  87.9019 272.6479 0002358  93.0047 267.1355 13.17646697 56818
ONEWEB-0308             
1 49094U 21075V   22286.84038205  .00000441  00000+0  11915-2 0  9998
2 49094  87.8871 257.3370 0001963  80.9197 279.2153 13.12445824 58485
ONEWEB-0309             
1 49095U 21075W   22286.69852989 -.00000063  00000+0 -19663-3 0  9996
2 49095  87.9026 272.6544 0001544 104.3759 255.7544 13.17650736 56781
ONEWEB-0310             
1 49096U 21075X   22286.77685848 -.00000034  00000+0 -13089-3 0  9998
2 49096  87.8837 257.3896 0001750  93.0285 267.1044 13.12440427 59108
ONEWEB-0311             
1 49097U 21075Y   22286.70317404 -.00000308  00000+0 -82601-3 0  9992
2 49097  87.9024 272.6549 0002330  88.9202 271.2197 13.17650713 56838
ONEWEB-0312             
1 49098U 21075Z   22286.71092470 -.00000048  00000+0 -15666-3 0  9995
2 49098  87.9030 272.6161 0001995  99.0135 261.1223 13.17651025 56813
ONEWEB-0313             
1 49099U 21075AA  22286.69698650 -.00000099  00000+0 -28943-3 0  9993
2 49099  87.9021 272.6528 0002131 100.0550 260.0822 13.17648816 56804
ONEWEB-0314             
1 49100U 21075AB  22286.69231189 -.00000320  00000+0 -85665-3 0  9997
2 49100  87.9025 272.6548 0002097 100.1581 259.9788 13.17647668 56777
ONEWEB-0315             
1 49101U 21075AC  22286.67096676  .00000212  00000+0  55363-3 0  9996
2 49101  87.8870 257.3659 0002199  84.1679 275.9701 13.12446186 59076
ONEWEB-0316             
1 49102U 21075AD  22286.59652464  .00000315  00000+0  76646-3 0  9992
2 49102  87.9163 242.1841 0002504  82.0897 278.0519 13.18686531 60267
ONEWEB-0317             
1 49103U 21075AE  22286.89545320  .00000429  00000+0  11572-2 0  9990
2 49103  87.8856 257.3245 0001807  89.3466 270.7870 13.12441153 59124
ONEWEB-0318             
1 49104U 21075AF  22287.27783112  .00000126  00000+0  28762-3 0  9991
2 49104  87.9165 242.0336 0002482  80.4749 279.6664 13.18691336 61316
ONEWEB-0319             
1 49105U 21075AG  22286.70473219 -.00000003  00000+0 -41000-4 0  9990
2 49105  87.9026 272.6153 0002770  86.6414 273.5034 13.17647036 56816
ONEWEB-0323             
1 49106U 21075AH  22286.65719050 -.00000220  00000+0 -64723-3 0  9998
2 49106  87.8870 257.3691 0002200  84.5435 275.5944 13.12445159 58459
ONEWEB-0329             
1 49107U 21075AJ  22286.70780823 -.00000093  00000+0 -27205-3 0  9993
2 49107  87.9029 272.6129 0002132  94.5308 265.6067 13.17650291 56798
ONEWEB-0330             
1 49108U 21075AK  22286.40562083  .00000077  00000+0  16502-3 0  9995
2 49108  87.9026 272.6923 0001951  94.2886 265.8469 13.17646975 56796
ONEWEB-0292             
1 49186U 21083A   22286.60984538  .00000137  00000+0  33930-3 0  9996
2 49186  87.9029 226.9399 0002104  71.9439 288.1920 13.13472684 54687
ONEWEB-0303             
1 49187U 21083B   22286.59185066  .00000068  00000+0  13951-3 0  9998
2 49187  87.9163 242.1720 0002206  84.8650 275.2734 13.18687889 53034
ONEWEB-0306             
1 49188U 21083C   22286.58567613  .00000079  00000+0  16835-3 0  9996
2 49188  87.9161 242.1664 0002558  78.4055 281.7364 13.18687120 53071
ONEWEB-0307             
1 49189U 21083D   22286.52945792  .00000310  00000+0  81313-3 0  9990
2 49189  87.9028 226.9561 0002011  77.0554 283.0800 13.13465275 54670
ONEWEB-0320             
1 49190U 21083E   22286.43856029  .00000043  00000+0  76804-4 0  9999
2 49190  87.9164 242.2120 0001735  85.4321 274.7009 13.18688002 53017
ONEWEB-0321             
1 49191U 21083F   22286.91667824 -.00041481  00000+0 -42703-2 0  9998
2 49191  87.2143 188.6412 0003519  49.6446  36.5950 14.90626581  1306
ONEWEB-0322             
1 49192U 21083G   22286.75372864  .00000331  00000+0  87063-3 0  9994
2 49192  87.9028 226.8962 0001618  80.9380 279.1932 13.13473313 54696
ONEWEB-0324             
1 49193U 21083H   22286.57946996 -.00000112  00000+0 -31725-3 0  9991
2 49193  87.9162 242.1708 0002428  85.5976 274.5433 13.18687224 53054
ONEWEB-0325             
1 49194U 21083J   22286.58256231  .00000396  00000+0  97104-3 0  9994
2 49194  87.9147 242.1030 0001699  89.7579 270.3748 13.18680554 53063
